start=new Date('2022-08-08T00:00:00.000Z').valueOf();
sats=[{"COUNTRY_CODE":"US","INCLINATION":"53.2178","OBJECT_NAME":"STARLINK-4274","ARG_OF_PERICENTER":"54.0187","REV_AT_EPOCH":"859","DECAY_DATE":null,"TLE_LINE1":"1 52865U 22062AM  22219.91667824 -.01050350  00000-0 -10152-1 0  9993","FILE":"3531526","PERIAPSIS":"362.341","MEAN_ELEMENT_THEORY":"SGP4","MEAN_ANOMALY":"178.5064","GP_ID":"209771197","ECCENTRICITY":"0.00013690","EPOCH":"2022-08-07T22:00:00.999936","SEMIMAJOR_AXIS":"6741.398","MEAN_MOTION_DOT":"-0.01050350","RCS_SIZE":"LARGE","CLASSIFICATION_TYPE":"U","OBJECT_ID":"2022-062AM","MEAN_MOTION_DDOT":"0.0000000000000","MEAN_MOTION":"15.68475594","TIME_SYSTEM":"UTC","TLE_LINE2":"2 52865  53.2178 150.5748 0001369  54.0187 178.5064 15.68475594  8595","REF_FRAME":"TEME","SITE":"AFETR","BSTAR":"-0.01015200000000","EPHEMERIS_TYPE":"0","RA_OF_ASC_NODE":"150.5748","ELEMENT_SET_NO":"999","PERIOD":"91.809","CENTER_NAME":"EARTH","LAUNCH_DATE":"2022-06-17","OBJECT_TYPE":"PAYLOAD","APOAPSIS":"364.186","NORAD_CAT_ID":"52865"},{"TIME_SYSTEM":"UTC","MEAN_MOTION":"15.68455141","TLE_LINE2":"2 52866  53.2178 150.5716 0001582  41.4094 189.1772 15.68455141  8595","REF_FRAME":"TEME","SITE":"AFETR","BSTAR":"-0.01016100000000","EPHEMERIS_TYPE":"0","RA_OF_ASC_NODE":"150.5716","ELEMENT_SET_NO":"999","CENTER_NAME":"EARTH","PERIOD":"91.810","LAUNCH_DATE":"2022-06-17","OBJECT_TYPE":"PAYLOAD","NORAD_CAT_ID":"52866","APOAPSIS":"364.389","ARG_OF_PERICENTER":"41.4094","COUNTRY_CODE":"US","OBJECT_NAME":"STARLINK-4272","INCLINATION":"53.2178","DECAY_DATE":null,"REV_AT_EPOCH":"859","FILE":"3531526","TLE_LINE1":"1 52866U 22062AN  22219.91667824 -.01050466  00000-0 -10161-1 0  9992","MEAN_ELEMENT_THEORY":"SGP4","PERIAPSIS":"362.256","ECCENTRICITY":"0.00015820","GP_ID":"209771201","MEAN_ANOMALY":"189.1772","EPOCH":"2022-08-07T22:00:00.999936","MEAN_MOTION_DOT":"-0.01050466","SEMIMAJOR_AXIS":"6741.457","RCS_SIZE":"LARGE","CLASSIFICATION_TYPE":"U","MEAN_MOTION_DDOT":"0.0000000000000","OBJECT_ID":"2022-062AN"},{"TLE_LINE2":"2 52867  53.2178 150.5790 0001557  42.3285 191.4882 15.68489563  8595","REF_FRAME":"TEME","MEAN_MOTION":"15.68489563","TIME_SYSTEM":"UTC","OBJECT_TYPE":"PAYLOAD","NORAD_CAT_ID":"52867","APOAPSIS":"364.273","PERIOD":"91.808","CENTER_NAME":"EARTH","LAUNCH_DATE":"2022-06-17","ELEMENT_SET_NO":"999","SITE":"AFETR","BSTAR":"-0.01014800000000","EPHEMERIS_TYPE":"0","RA_OF_ASC_NODE":"150.5790","TLE_LINE1":"1 52867U 22062AP  22219.91667824 -.01050594  00000-0 -10148-1 0  9990","FILE":"3531526","REV_AT_EPOCH":"859","DECAY_DATE":null,"OBJECT_NAME":"STARLINK-4126","COUNTRY_CODE":"US","INCLINATION":"53.2178","ARG_OF_PERICENTER":"42.3285","CLASSIFICATION_TYPE":"U","OBJECT_ID":"2022-062AP","MEAN_MOTION_DDOT":"0.0000000000000","SEMIMAJOR_AXIS":"6741.358","MEAN_MOTION_DOT":"-0.01050594","RCS_SIZE":"LARGE","MEAN_ANOMALY":"191.4882","GP_ID":"209771202","ECCENTRICITY":"0.00015570","EPOCH":"2022-08-07T22:00:00.999936","PERIAPSIS":"362.174","MEAN_ELEMENT_THEORY":"SGP4"},{"REF_FRAME":"TEME","TLE_LINE2":"2 52868  53.2178 150.5749 0001385  52.9975 178.8813 15.68468847  8597","MEAN_MOTION":"15.68468847","TIME_SYSTEM":"UTC","LAUNCH_DATE":"2022-06-17","PERIOD":"91.809","CENTER_NAME":"EARTH","APOAPSIS":"364.216","NORAD_CAT_ID":"52868","OBJECT_TYPE":"PAYLOAD","EPHEMERIS_TYPE":"0","RA_OF_ASC_NODE":"150.5749","BSTAR":"-0.01015500000000","SITE":"AFETR","ELEMENT_SET_NO":"999","TLE_LINE1":"1 52868U 22062AQ  22219.91667824 -.01050371  00000-0 -10155-1 0  9992","FILE":"3531526","OBJECT_NAME":"STARLINK-4261","COUNTRY_CODE":"US","INCLINATION":"53.2178","ARG_OF_PERICENTER":"52.9975","REV_AT_EPOCH":"859","DECAY_DATE":null,"RCS_SIZE":"LARGE","SEMIMAJOR_AXIS":"6741.418","MEAN_MOTION_DOT":"-0.01050371","OBJECT_ID":"2022-062AQ","MEAN_MOTION_DDOT":"0.0000000000000","CLASSIFICATION_TYPE":"U","PERIAPSIS":"362.349","MEAN_ELEMENT_THEORY":"SGP4","EPOCH":"2022-08-07T22:00:00.999936","MEAN_ANOMALY":"178.8813","GP_ID":"209771585","ECCENTRICITY":"0.00013850"},{"OBJECT_TYPE":"PAYLOAD","NORAD_CAT_ID":"52869","APOAPSIS":"352.286","CENTER_NAME":"EARTH","PERIOD":"91.532","LAUNCH_DATE":"2022-06-17","ELEMENT_SET_NO":"999","BSTAR":"0.00013409000000","SITE":"AFETR","RA_OF_ASC_NODE":"150.5196","EPHEMERIS_TYPE":"0","TLE_LINE2":"2 52869  53.2133 150.5196 0003829   7.6537 244.5837 15.73217791  1306","REF_FRAME":"TEME","MEAN_MOTION":"15.73217791","TIME_SYSTEM":"UTC","CLASSIFICATION_TYPE":"U","OBJECT_ID":"2022-062AR","MEAN_MOTION_DDOT":"0.0000000000000","MEAN_MOTION_DOT":"0.00018257","SEMIMAJOR_AXIS":"6727.844","RCS_SIZE":"LARGE","ECCENTRICITY":"0.00038290","GP_ID":"209796394","MEAN_ANOMALY":"244.5837","EPOCH":"2022-08-07T22:00:00.999936","PERIAPSIS":"347.133","MEAN_ELEMENT_THEORY":"SGP4","TLE_LINE1":"1 52869U 22062AR  22219.91667824  .00018257  00000-0  13409-3 0  9994","FILE":"3531552","REV_AT_EPOCH":"130","DECAY_DATE":null,"COUNTRY_CODE":"US","OBJECT_NAME":"STARLINK-4266","INCLINATION":"53.2133","ARG_OF_PERICENTER":"7.6537"},{"TLE_LINE1":"1 52870U 22062AS  22219.91667824 -.01050713  00000-0 -10152-1 0  9992","FILE":"3531526","REV_AT_EPOCH":"859","DECAY_DATE":null,"OBJECT_NAME":"STARLINK-4195","COUNTRY_CODE":"US","INCLINATION":"53.2178","ARG_OF_PERICENTER":"38.8517","CLASSIFICATION_TYPE":"U","OBJECT_ID":"2022-062AS","MEAN_MOTION_DDOT":"0.0000000000000","MEAN_MOTION_DOT":"-0.01050713","SEMIMAJOR_AXIS":"6741.378","RCS_SIZE":"LARGE","MEAN_ANOMALY":"194.3191","GP_ID":"209771198","ECCENTRICITY":"0.00015960","EPOCH":"2022-08-07T22:00:00.999936","PERIAPSIS":"362.167","MEAN_ELEMENT_THEORY":"SGP4","TLE_LINE2":"2 52870  53.2178 150.5766 0001596  38.8517 194.3191 15.68482728  8594","REF_FRAME":"TEME","MEAN_MOTION":"15.68482728","TIME_SYSTEM":"UTC","OBJECT_TYPE":"PAYLOAD","APOAPSIS":"364.319","NORAD_CAT_ID":"52870","CENTER_NAME":"EARTH","PERIOD":"91.808","LAUNCH_DATE":"2022-06-17","ELEMENT_SET_NO":"999","BSTAR":"-0.01015200000000","SITE":"AFETR","EPHEMERIS_TYPE":"0","RA_OF_ASC_NODE":"150.5766"},{"MEAN_MOTION":"15.73235329","TIME_SYSTEM":"UTC","REF_FRAME":"TEME","TLE_LINE2":"2 52871  53.2144 150.5138 0003024  12.9466 241.0588 15.73235329  1306","EPHEMERIS_TYPE":"0","RA_OF_ASC_NODE":"150.5138","BSTAR":"-0.00012519000000","SITE":"AFETR","ELEMENT_SET_NO":"999","LAUNCH_DATE":"2022-06-17","PERIOD":"91.531","CENTER_NAME":"EARTH","NORAD_CAT_ID":"52871","APOAPSIS":"351.694","OBJECT_TYPE":"PAYLOAD","OBJECT_NAME":"STARLINK-4207","COUNTRY_CODE":"US","INCLINATION":"53.2144","ARG_OF_PERICENTER":"12.9466","REV_AT_EPOCH":"130","DECAY_DATE":null,"TLE_LINE1":"1 52871U 22062AT  22219.91667824 -.00018186  00000-0 -12519-3 0  9991","FILE":"3531552","PERIAPSIS":"347.625","MEAN_ELEMENT_THEORY":"SGP4","EPOCH":"2022-08-07T22:00:00.999936","GP_ID":"209796279","MEAN_ANOMALY":"241.0588","ECCENTRICITY":"0.00030240","RCS_SIZE":"LARGE","SEMIMAJOR_AXIS":"6727.794","MEAN_MOTION_DOT":"-0.00018186","OBJECT_ID":"2022-062AT","MEAN_MOTION_DDOT":"0.0000000000000","CLASSIFICATION_TYPE":"U"},{"ECCENTRICITY":"0.00028370","GP_ID":"209771580","MEAN_ANOMALY":"239.5998","EPOCH":"2022-08-07T22:00:00.999936","MEAN_ELEMENT_THEORY":"SGP4","PERIAPSIS":"347.740","CLASSIFICATION_TYPE":"U","MEAN_MOTION_DDOT":"0.0000000000000","OBJECT_ID":"2022-062AU","MEAN_MOTION_DOT":"-0.00070200","SEMIMAJOR_AXIS":"6727.784","RCS_SIZE":"LARGE","DECAY_DATE":null,"REV_AT_EPOCH":"859","ARG_OF_PERICENTER":"13.1724","COUNTRY_CODE":"US","INCLINATION":"53.2144","OBJECT_NAME":"STARLINK-4213","FILE":"3531526","TLE_LINE1":"1 52872U 22062AU  22219.91667824 -.00070200  00000-0 -49896-3 0  9995","ELEMENT_SET_NO":"999","BSTAR":"-0.00049896000000","SITE":"AFETR","EPHEMERIS_TYPE":"0","RA_OF_ASC_NODE":"150.5158","OBJECT_TYPE":"PAYLOAD","APOAPSIS":"351.558","NORAD_CAT_ID":"52872","CENTER_NAME":"EARTH","PERIOD":"91.531","LAUNCH_DATE":"2022-06-17","TIME_SYSTEM":"UTC","MEAN_MOTION":"15.73239049","TLE_LINE2":"2 52872  53.2144 150.5158 0002837  13.1724 239.5998 15.73239049  8598","REF_FRAME":"TEME"},{"ELEMENT_SET_NO":"999","SITE":"AFETR","BSTAR":"0.00009956600000","EPHEMERIS_TYPE":"0","RA_OF_ASC_NODE":"150.5130","OBJECT_TYPE":"PAYLOAD","NORAD_CAT_ID":"52873","APOAPSIS":"352.141","CENTER_NAME":"EARTH","PERIOD":"91.532","LAUNCH_DATE":"2022-06-17","TIME_SYSTEM":"UTC","MEAN_MOTION":"15.73218102","TLE_LINE2":"2 52873  53.2146 150.5130 0003616   5.1162 250.0531 15.73218102  1304","REF_FRAME":"TEME","ECCENTRICITY":"0.00036160","GP_ID":"209796790","MEAN_ANOMALY":"250.0531","EPOCH":"2022-08-07T22:00:00.999936","MEAN_ELEMENT_THEORY":"SGP4","PERIAPSIS":"347.276","CLASSIFICATION_TYPE":"U","MEAN_MOTION_DDOT":"0.0000000000000","OBJECT_ID":"2022-062AV","SEMIMAJOR_AXIS":"6727.844","MEAN_MOTION_DOT":"0.00013387","RCS_SIZE":"LARGE","DECAY_DATE":null,"REV_AT_EPOCH":"130","ARG_OF_PERICENTER":"5.1162","OBJECT_NAME":"STARLINK-4211","COUNTRY_CODE":"US","INCLINATION":"53.2146","FILE":"3531552","TLE_LINE1":"1 52873U 22062AV  22219.91667824  .00013387  00000-0  99566-4 0  9997"},{"FILE":"3531552","TLE_LINE1":"1 52874U 22062AW  22219.91667824 -.00094559  00000-0 -67479-3 0  9997","DECAY_DATE":null,"REV_AT_EPOCH":"130","ARG_OF_PERICENTER":"7.2495","COUNTRY_CODE":"US","OBJECT_NAME":"STARLINK-4210","INCLINATION":"53.2146","CLASSIFICATION_TYPE":"U","MEAN_MOTION_DDOT":"0.0000000000000","OBJECT_ID":"2022-062AW","SEMIMAJOR_AXIS":"6727.719","MEAN_MOTION_DOT":"-0.00094559","RCS_SIZE":"LARGE","ECCENTRICITY":"0.00036020","GP_ID":"209796148","MEAN_ANOMALY":"246.1384","EPOCH":"2022-08-07T22:00:00.999936","MEAN_ELEMENT_THEORY":"SGP4","PERIAPSIS":"347.161","TLE_LINE2":"2 52874  53.2146 150.5150 0003602   7.2495 246.1384 15.73261813  1303","REF_FRAME":"TEME","TIME_SYSTEM":"UTC","MEAN_MOTION":"15.73261813","OBJECT_TYPE":"PAYLOAD","NORAD_CAT_ID":"52874","APOAPSIS":"352.007","PERIOD":"91.530","CENTER_NAME":"EARTH","LAUNCH_DATE":"2022-06-17","ELEMENT_SET_NO":"999","SITE":"AFETR","BSTAR":"-0.00067479000000","RA_OF_ASC_NODE":"150.5150","EPHEMERIS_TYPE":"0"}];
